[
    {
        "Altitude(m)": 706716.8041802672,
        "Argument of Periapsis(deg)": 0.006834072711976239,
        "Eccentricity": 0.0,
        "Inclination(deg)": 45.0,
        "Latitude(deg)": 42.520081910640975,
        "Longitude(deg)": 170.33804690938638,
        "Mean Anomaly(deg)": 72.37442998848852,
        "RAAN(deg)": 204.99354883512504,
        "Satellite Name": "Constellation 1 906",
        "Satellite Number": 906,
        "Semi-Major Axis(m)": 7083131.272910544,
        "Time(s)": 114
    },
    {
        "Altitude(m)": 706720.7096881123,
        "Argument of Periapsis(deg)": 0.006894020718221645,
        "Eccentricity": 0.0,
        "Inclination(deg)": 45.0,
        "Latitude(deg)": 42.53770095092722,
        "Longitude(deg)": 170.41262227467354,
        "Mean Anomaly(deg)": 72.4351311287384,
        "RAAN(deg)": 204.9934922459595,
        "Satellite Name": "Constellation 1 906",
        "Satellite Number": 906,
        "Semi-Major Axis(m)": 7083131.272910544,
        "Time(s)": 115
    },
    {
        "Altitude(m)": 706724.6040165123,
        "Argument of Periapsis(deg)": 0.006953968724467052,
        "Eccentricity": 0.0,
        "Inclination(deg)": 45.0,
        "Latitude(deg)": 42.55526590086476,
        "Longitude(deg)": 170.48724179290608,
        "Mean Anomaly(deg)": 72.49583226898827,
        "RAAN(deg)": 204.9934356567939,
        "Satellite Name": "Constellation 1 906",
        "Satellite Number": 906,
        "Semi-Major Axis(m)": 7083131.272910544,
        "Time(s)": 116
    },
    {
        "Altitude(m)": 706728.4871423487,
        "Argument of Periapsis(deg)": 0.007013916730712457,
        "Eccentricity": 0.0,
        "Inclination(deg)": 45.0,
        "Latitude(deg)": 42.57277669747886,
        "Longitude(deg)": 170.56190538012308,
        "Mean Anomaly(deg)": 72.55653340923814,
        "RAAN(deg)": 204.99337906762835,
        "Satellite Name": "Constellation 1 906",
        "Satellite Number": 906,
        "Semi-Major Axis(m)": 7083131.272910544,
        "Time(s)": 117
    },
    {
        "Altitude(m)": 706732.3590425722,
        "Argument of Periapsis(deg)": 0.007073864736957864,
        "Eccentricity": 0.0,
        "Inclination(deg)": 45.0,
        "Latitude(deg)": 42.59023327789874,
        "Longitude(deg)": 170.63661295180017,
        "Mean Anomaly(deg)": 72.61723454948809,
        "RAAN(deg)": 204.9933224784628,
        "Satellite Name": "Constellation 1 906",
        "Satellite Number": 906,
        "Semi-Major Axis(m)": 7083131.272910544,
        "Time(s)": 118
    },
    {
        "Altitude(m)": 706736.2196941988,
        "Argument of Periapsis(deg)": 0.0071338127432032696,
        "Eccentricity": 0.0,
        "Inclination(deg)": 45.0,
        "Latitude(deg)": 42.60763557935862,
        "Longitude(deg)": 170.71136425475177,
        "Mean Anomaly(deg)": 72.677935689738,
        "RAAN(deg)": 204.9932658892972,
        "Satellite Name": "Constellation 1 906",
        "Satellite Number": 906,
        "Semi-Major Axis(m)": 7083131.272910544,
        "Time(s)": 119
    },
    {
        "Altitude(m)": 706740.0690743098,
        "Argument of Periapsis(deg)": 0.007193760749448674,
        "Eccentricity": 0.0,
        "Inclination(deg)": 45.0,
        "Latitude(deg)": 42.62498353919754,
        "Longitude(deg)": 170.78615953952,
        "Mean Anomaly(deg)": 72.73863682998788,
        "RAAN(deg)": 204.99320930013164,
        "Satellite Name": "Constellation 1 906",
        "Satellite Number": 906,
        "Semi-Major Axis(m)": 7083131.272910544,
        "Time(s)": 120
    },
    {
        "Altitude(m)": 706743.9071600732,
        "Argument of Periapsis(deg)": 0.007253708755694079,
        "Eccentricity": 0.0,
        "Inclination(deg)": 45.0,
        "Latitude(deg)": 42.64227709486202,
        "Longitude(deg)": 170.86099855179157,
        "Mean Anomaly(deg)": 72.79933797023783,
        "RAAN(deg)": 204.9931527109661,
        "Satellite Name": "Constellation 1 906",
        "Satellite Number": 906,
        "Semi-Major Axis(m)": 7083131.272910544,
        "Time(s)": 121
    },
    {
        "Altitude(m)": 706747.7339287066,
        "Argument of Periapsis(deg)": 0.0073136567619394854,
        "Eccentricity": 0.0,
        "Inclination(deg)": 45.0,
        "Latitude(deg)": 42.65951618390571,
        "Longitude(deg)": 170.93588120478546,
        "Mean Anomaly(deg)": 72.86003911048768,
        "RAAN(deg)": 204.9930961218005,
        "Satellite Name": "Constellation 1 906",
        "Satellite Number": 906,
        "Semi-Major Axis(m)": 7083131.272910544,
        "Time(s)": 122
    },
    {
        "Altitude(m)": 706751.5493575109,
        "Argument of Periapsis(deg)": 0.0073736047681848904,
        "Eccentricity": 0.0,
        "Inclination(deg)": 45.0,
        "Latitude(deg)": 42.6767007439907,
        "Longitude(deg)": 171.0108074111568,
        "Mean Anomaly(deg)": 72.92074025073758,
        "RAAN(deg)": 204.99303953263495,
        "Satellite Name": "Constellation 1 906",
        "Satellite Number": 906,
        "Semi-Major Axis(m)": 7083131.272910544,
        "Time(s)": 123
    },
    {
        "Altitude(m)": 706755.3534238577,
        "Argument of Periapsis(deg)": 0.007433552774430298,
        "Eccentricity": 0.0,
        "Inclination(deg)": 45.0,
        "Latitude(deg)": 42.69383071288833,
        "Longitude(deg)": 171.08577708299543,
        "Mean Anomaly(deg)": 72.98144139098744,
        "RAAN(deg)": 204.99298294346937,
        "Satellite Name": "Constellation 1 906",
        "Satellite Number": 906,
        "Semi-Major Axis(m)": 7083131.272910544,
        "Time(s)": 124
    },
    {
        "Altitude(m)": 706759.1461051792,
        "Argument of Periapsis(deg)": 0.007493500780675703,
        "Eccentricity": 0.0,
        "Inclination(deg)": 45.0,
        "Latitude(deg)": 42.71090602848005,
        "Longitude(deg)": 171.16079013182667,
        "Mean Anomaly(deg)": 73.04214253123742,
        "RAAN(deg)": 204.9929263543038,
        "Satellite Name": "Constellation 1 906",
        "Satellite Number": 906,
        "Semi-Major Axis(m)": 7083131.272910544,
        "Time(s)": 125
    },
    {
        "Altitude(m)": 706762.9273789787,
        "Argument of Periapsis(deg)": 0.007553448786921108,
        "Eccentricity": 0.0,
        "Inclination(deg)": 45.0,
        "Latitude(deg)": 42.727926628758745,
        "Longitude(deg)": 171.23584630051343,
        "Mean Anomaly(deg)": 73.10284367148726,
        "RAAN(deg)": 204.99286976513824,
        "Satellite Name": "Constellation 1 906",
        "Satellite Number": 906,
        "Semi-Major Axis(m)": 7083131.272910544,
        "Time(s)": 126
    },
    {
        "Altitude(m)": 706766.6972228482,
        "Argument of Periapsis(deg)": 0.007613396793166514,
        "Eccentricity": 0.0,
        "Inclination(deg)": 45.0,
        "Latitude(deg)": 42.74489245182838,
        "Longitude(deg)": 171.3109458356451,
        "Mean Anomaly(deg)": 73.16354481173717,
        "RAAN(deg)": 204.99281317597266,
        "Satellite Name": "Constellation 1 906",
        "Satellite Number": 906,
        "Semi-Major Axis(m)": 7083131.272910544,
        "Time(s)": 127
    },
    {
        "Altitude(m)": 706770.4556144264,
        "Argument of Periapsis(deg)": 0.007673344799411918,
        "Eccentricity": 0.0,
        "Inclination(deg)": 45.0,
        "Latitude(deg)": 42.761803435906685,
        "Longitude(deg)": 171.3860884789543,
        "Mean Anomaly(deg)": 73.2242459519871,
        "RAAN(deg)": 204.9927565868071,
        "Satellite Name": "Constellation 1 906",
        "Satellite Number": 906,
        "Semi-Major Axis(m)": 7083131.272910544,
        "Time(s)": 128
    },
    {
        "Altitude(m)": 706774.202531439,
        "Argument of Periapsis(deg)": 0.007733292805657325,
        "Eccentricity": 0.0,
        "Inclination(deg)": 45.0,
        "Latitude(deg)": 42.778659519324854,
        "Longitude(deg)": 171.46127413970538,
        "Mean Anomaly(deg)": 73.28494709223699,
        "RAAN(deg)": 204.99269999764155,
        "Satellite Name": "Constellation 1 906",
        "Satellite Number": 906,
        "Semi-Major Axis(m)": 7083131.272910544,
        "Time(s)": 129
    },
    {
        "Altitude(m)": 706777.9379516732,
        "Argument of Periapsis(deg)": 0.00779324081190273,
        "Eccentricity": 0.0,
        "Inclination(deg)": 45.0,
        "Latitude(deg)": 42.79546064052879,
        "Longitude(deg)": 171.5365027265974,
        "Mean Anomaly(deg)": 73.3456482324869,
        "RAAN(deg)": 204.99264340847594,
        "Satellite Name": "Constellation 1 906",
        "Satellite Number": 906,
        "Semi-Major Axis(m)": 7083131.272910544,
        "Time(s)": 130
    },
    {
        "Altitude(m)": 706781.6618529873,
        "Argument of Periapsis(deg)": 0.007853188818148135,
        "Eccentricity": 0.0,
        "Inclination(deg)": 45.0,
        "Latitude(deg)": 42.812206738079986,
        "Longitude(deg)": 171.61177414776364,
        "Mean Anomaly(deg)": 73.40634937273674,
        "RAAN(deg)": 204.9925868193104,
        "Satellite Name": "Constellation 1 906",
        "Satellite Number": 906,
        "Semi-Major Axis(m)": 7083131.272910544,
        "Time(s)": 131
    },
    {
        "Altitude(m)": 706785.3742133203,
        "Argument of Periapsis(deg)": 0.007913136824393542,
        "Eccentricity": 0.0,
        "Inclination(deg)": 45.0,
        "Latitude(deg)": 42.82889775065648,
        "Longitude(deg)": 171.68708831077222,
        "Mean Anomaly(deg)": 73.4670505129867,
        "RAAN(deg)": 204.9925302301448,
        "Satellite Name": "Constellation 1 906",
        "Satellite Number": 906,
        "Semi-Major Axis(m)": 7083131.272910544,
        "Time(s)": 132
    }
]